MEAN_MOTION;ECCENTRICITY;INCLINATION;RA_OF_ASC_NODE;ARG_OF_PERICENTER;MEAN_ANOMALY;BSTAR;MEAN_MOTION_DOT;MEAN_MOTION_DDOT;TYPE
14.30699039;0.0009005;98.8831;59.8252;227.1175;132.9251;2.3057E-5;1.4E-7;0;Amateur
14.30699037;0.0009009;98.8831;59.8966;226.8845;133.1584;2.2176E-5;1.2E-7;0;Amateur
14.30699062;0.0009048;98.8832;60.8967;223.7853;136.2612;1.7529E-5;-1.0E-8;0;Amateur
14.3069906;0.0009093;98.8834;61.9682;220.4664;139.5842;1.0784E-5;-1.8E-7;0;Amateur
14.3069906;0.0009093;98.8834;61.9682;220.4664;139.5842;1.0784E-5;-1.8E-7;0;Amateur
14.3069908;0.0009112;98.8835;62.4683;218.9026;141.1501;9.5407E-6;-2.1E-7;0;Amateur
14.30699144;0.0009151;98.8836;63.4684;215.8229;144.234;9.0864E-6;-2.3E-7;0;Amateur
14.30699282;0.0009225;98.8839;64.9686;211.318;148.7454;8.6241E-6;-2.4E-7;0;Amateur
14.30699282;0.0009225;98.8839;64.9686;211.318;148.7454;8.6241E-6;-2.4E-7;0;Amateur
14.30699577;0.0009281;98.884;66.0402;207.9593;152.1091;1.6266E-5;-4.0E-8;0;Amateur
14.30699604;0.0009291;98.8841;66.2546;207.3076;152.7618;1.7322E-5;-1.0E-8;0;Amateur
14.30699755;0.0009325;98.8842;67.0403;204.9618;155.1114;2.1009E-5;9.0E-8;0;Amateur
14.3069985;0.0009375;98.8843;68.0405;201.9673;158.1108;2.0297E-5;7.0E-8;0;Amateur
14.30699872;0.0009422;98.8845;69.0407;198.984;161.0992;1.7873E-5;0;0;Amateur
14.30699843;0.0009483;98.8846;70.1123;195.7931;164.2956;1.5829E-5;-5.0E-8;0;Amateur
14.30699843;0.0009483;98.8846;70.1123;195.7931;164.2956;1.5829E-5;-5.0E-8;0;Amateur
14.30699839;0.0009538;98.8847;71.1125;192.8413;167.2527;1.366E-5;-1.1E-7;0;Amateur
14.30699791;0.0009571;98.8847;71.7556;190.9558;169.1417;9.0885E-6;-2.3E-7;0;Amateur
14.30699731;0.0009594;98.8848;72.1843;189.7116;170.3882;5.1643E-6;-3.3E-7;0;Amateur
14.30699718;0.000962;98.8848;72.7559;188.0788;172.024;5.0394E-6;-3.3E-7;0;Amateur
14.3069972;0.0009638;98.8848;73.1132;187.0457;173.0591;5.7578E-6;-3.1E-7;0;Amateur
14.30699727;0.000964;98.8849;73.1846;186.8315;173.2737;5.993E-6;-3.1E-7;0;Amateur
14.30699718;0.000961;98.8851;73.8275;185.2321;174.8761;1.2447E-6;-4.3E-7;0;Amateur
14.30699715;0.0009628;98.8852;74.1847;184.2015;175.9087;1.1962E-6;-4.3E-7;0;Amateur
14.30699675;0.0009664;98.8854;75.185;181.3228;178.793;-2.5875E-7;-4.7E-7;0;Amateur
14.30699637;0.0009701;98.8855;75.8281;179.4389;180.6806;-1.8528E-6;-5.1E-7;0;Amateur
14.30699623;0.0009724;98.8855;76.2569;178.2244;181.8974;-2.325E-6;-5.2E-7;0;Amateur
14.30699598;0.0009777;98.8857;77.1858;175.5503;184.5768;-2.7485E-6;-5.4E-7;0;Amateur
14.30699594;0.0009781;98.8857;77.2573;175.3461;184.7814;-3.0326E-6;-5.4E-7;0;Amateur
14.30699635;0.0009808;98.8858;77.9003;173.4745;186.6566;-7.0041E-7;-4.8E-7;0;Amateur
14.30699641;0.0009829;98.8858;78.2576;172.4801;187.653;-3.9734E-7;-4.7E-7;0;Amateur
14.30699671;0.0009888;98.886;79.3294;169.4377;190.7014;5.3337E-7;-4.5E-7;0;Amateur
14.30699671;0.0009888;98.886;79.3294;169.4377;190.7014;5.3337E-7;-4.5E-7;0;Amateur
14.30699741;0.0010015;98.8856;80.3298;166.4339;193.7114;-1.0678E-7;-4.7E-7;0;Amateur
14.30699779;0.0010052;98.8857;80.9014;164.8053;195.3433;8.8916E-7;-4.4E-7;0;Amateur
14.30699774;0.0010054;98.8857;80.9729;164.6155;195.5334;1.0049E-6;-4.4E-7;0;Amateur
14.30699801;0.0010067;98.8858;81.3302;163.6854;196.4654;1.6416E-6;-4.2E-7;0;Amateur
14.30699822;0.0010098;98.8859;81.9733;161.9241;198.2302;1.2632E-6;-4.3E-7;0;Amateur
14.30699824;0.0010112;98.8859;82.4021;160.7398;199.4168;1.1896E-6;-4.3E-7;0;Amateur
14.30699873;0.0010174;98.8861;83.3312;158.1419;202.0198;3.9391E-6;-3.6E-7;0;Amateur
14.30699885;0.0010176;98.8861;83.4026;157.9625;202.1996;4.3309E-6;-3.5E-7;0;Amateur
14.30700068;0.0010214;98.8862;84.4031;155.2121;204.9554;1.1599E-5;-1.6E-7;0;Amateur
14.30700068;0.0010214;98.8862;84.4031;155.2121;204.9554;1.1599E-5;-1.6E-7;0;Amateur
14.30700283;0.0010253;98.8863;85.4035;152.5211;207.6515;1.9038E-5;3.0E-8;0;Amateur
14.30700403;0.0010314;98.8863;85.9752;150.9103;209.2655;2.2281E-5;1.2E-7;0;Amateur
14.30700477;0.0010331;98.8864;86.4755;149.5803;210.598;2.4894E-5;1.9E-7;0;Amateur
14.30700646;0.0010385;98.8864;87.1186;147.7618;212.42;3.0398E-5;3.3E-7;0;Amateur
14.30700741;0.0010389;98.8864;87.476;146.8194;213.3641;3.3005E-5;4.0E-7;0;Amateur
14.30700949;0.0010434;98.8864;88.405;144.3032;215.8849;3.5968E-5;4.8E-7;0;Amateur
14.3070097;0.0010436;98.8864;88.4764;144.1172;216.0713;3.6161E-5;4.8E-7;0;Amateur
14.30701177;0.0010486;98.8866;89.4769;141.4525;218.7407;3.7173E-5;5.1E-7;0;Amateur
14.30701196;0.0010489;98.8866;89.5484;141.2666;218.927;3.7294E-5;5.1E-7;0;Amateur
14.30701388;0.001053;98.8866;90.5489;138.5948;221.6034;3.7858E-5;5.3E-7;0;Amateur
14.30701388;0.001053;98.8866;90.5489;138.5948;221.6034;3.7858E-5;5.3E-7;0;Amateur
14.30701569;0.0010575;98.8867;91.5494;135.9342;224.2684;3.6407E-5;4.9E-7;0;Amateur
14.3070159;0.0010593;98.8868;92.1925;134.1791;226.0263;3.0186E-5;3.3E-7;0;Amateur
14.30701577;0.0010635;98.8868;92.6214;133.0911;227.1163;2.5955E-5;2.2E-7;0;Amateur
14.30701559;0.0010668;98.8869;93.622;130.4644;229.747;1.8692E-5;3.0E-8;0;Amateur
14.30701486;0.0010681;98.887;94.4082;128.4088;231.8054;1.1488E-5;-1.6E-7;0;Amateur
14.30701501;0.0010686;98.887;94.6226;127.8342;232.3808;1.0364E-5;-1.9E-7;0;Amateur
14.30701397;0.0010706;98.8872;95.6232;125.2071;235.0115;9.8914E-7;-4.4E-7;0;Amateur
14.30701397;0.001071;98.8872;95.6947;125.0256;235.1932;7.2852E-7;-4.4E-7;0;Amateur
14.3070144;0.0010747;98.8873;96.6953;122.4431;237.7791;1.7337E-6;-4.2E-7;0;Amateur
14.30701534;0.0010785;98.8873;97.267;120.9482;239.2761;5.7414E-6;-3.1E-7;0;Amateur
14.30701613;0.0010792;98.8873;97.6958;119.855;240.3706;9.6526E-6;-2.1E-7;0;Amateur
14.30701801;0.0010824;98.8874;98.3391;118.1883;242.0393;1.6952E-5;-2.0E-8;0;Amateur
14.30701901;0.0010825;98.8874;98.6965;117.2624;242.9662;2.1157E-5;9.0E-8;0;Amateur
14.30702073;0.0010839;98.8874;99.3398;115.5749;244.6554;2.6724E-5;2.4E-7;0;Amateur
14.30702129;0.0010838;98.8874;99.6972;114.6207;245.6105;2.828E-5;2.8E-7;0;Amateur
14.30702165;0.0010843;98.8874;99.7687;114.4275;245.804;2.9609E-5;3.1E-7;0;Amateur
14.30702298;0.0010854;98.8875;100.269;113.1263;247.1063;3.3762E-5;4.2E-7;0;Amateur
14.30702315;0.0010872;98.8875;100.4835;112.5996;247.6337;3.4441E-5;4.4E-7;0;Amateur
14.30702471;0.0010882;98.8876;101.2697;110.5415;249.6935;3.6266E-5;4.9E-7;0;Amateur
14.30702489;0.0010888;98.8876;101.4127;110.206;250.0294;3.6745E-5;5.0E-7;0;Amateur
14.30702528;0.0010888;98.8876;101.77;109.2618;250.9743;3.5585E-5;4.7E-7;0;Amateur
14.30702498;0.00109;98.8876;102.4134;107.6447;252.5926;2.9169E-5;3.0E-7;0;Amateur
14.307025;0.0010911;98.8876;102.8422;106.5588;253.6793;2.7044E-5;2.4E-7;0;Amateur
14.30702473;0.0010927;98.8877;103.7714;104.1444;256.0953;2.1864E-5;1.1E-7;0;Amateur
14.3070248;0.0010933;98.8877;103.8429;103.9815;256.2583;2.1671E-5;1.0E-7;0;Amateur
14.30702418;0.0010935;98.8877;104.8436;101.3441;258.897;1.3308E-5;-1.1E-7;0;Amateur
14.30702407;0.0010952;98.8877;105.058;100.8474;259.3941;1.1902E-5;-1.5E-7;0;Amateur
14.30702364;0.0010957;98.8878;105.8443;98.8058;261.4365;6.4022E-6;-3.0E-7;0;Amateur
14.30702356;0.0010964;98.8878;106.4876;97.1508;263.0921;4.36E-6;-3.5E-7;0;Amateur
14.30702346;0.0010965;98.8878;106.9165;96.0403;264.2029;3.5517E-6;-3.7E-7;0;Amateur
14.307024;0.0010974;98.8879;107.8457;93.6306;266.6131;4.585E-6;-3.4E-7;0;Amateur
14.3070242;0.0010976;98.8879;107.9172;93.4766;266.7672;5.3444E-6;-3.2E-7;0;Amateur
14.30702515;0.0010985;98.888;108.5605;91.8499;268.3941;7.502E-6;-2.7E-7;0;Amateur
14.30702552;0.0010975;98.888;108.9179;90.8979;269.346;8.1656E-6;-2.5E-7;0;Amateur
14.30702552;0.0010975;98.888;108.9179;90.8979;269.346;8.1656E-6;-2.5E-7;0;Amateur
14.3070273;0.0011005;98.888;109.5612;89.4269;270.8174;1.3211E-5;-1.2E-7;0;Amateur
14.30702831;0.0010991;98.8881;109.9901;88.303;271.9411;1.7107E-5;-2.0E-8;0;Amateur
14.30702831;0.0010991;98.8881;109.9901;88.303;271.9411;1.7107E-5;-2.0E-8;0;Amateur
14.3070299;0.0010999;98.8882;110.6334;86.6603;273.5837;2.2693E-5;1.3E-7;0;Amateur
14.30703072;0.0010993;98.8882;110.9909;85.7569;274.4869;2.4459E-5;1.8E-7;0;Amateur
14.30703106;0.0010987;98.8882;111.0623;85.5142;274.7295;2.5755E-5;2.1E-7;0;Amateur
14.3070324;0.0010982;98.8883;111.9916;83.1163;277.1268;2.5994E-5;2.2E-7;0;Amateur
14.30703261;0.0010987;98.8883;112.206;82.606;277.637;2.5053E-5;1.9E-7;0;Amateur
14.30703273;0.0010966;98.8884;113.0638;80.2882;279.9538;1.9825E-5;6.0E-8;0;Amateur
14.30703297;0.0010961;98.8884;113.6357;78.8218;281.4195;1.8231E-5;1.0E-8;0;Amateur
14.30703321;0.0010957;98.8884;114.0646;77.7074;282.5334;1.7849E-5;0;0;Amateur
14.30703391;0.0010949;98.8885;114.7079;76.0394;284.2005;1.8981E-5;3.0E-8;0;Amateur
14.30703511;0.0010934;98.8885;115.7087;73.4673;286.7709;2.0345E-5;7.0E-8;0;Amateur
14.30703567;0.0010923;98.8885;116.2091;72.1669;288.0703;2.1019E-5;9.0E-8;0;Amateur
14.3070371;0.0010909;98.8885;117.1384;69.7722;290.4632;2.4898E-5;1.9E-7;0;Amateur
14.30703833;0.0010905;98.8885;117.7103;68.3223;291.9119;2.8465E-5;2.8E-7;0;Amateur
14.30703925;0.0010897;98.8885;118.1392;67.2504;292.9828;3.0836E-5;3.4E-7;0;Amateur
14.3070407;0.0010886;98.8885;118.7825;65.6005;294.6311;3.3321E-5;4.1E-7;0;Amateur
14.30704123;0.0010876;98.8885;119.14;64.6897;295.541;3.2426E-5;3.9E-7;0;Amateur
14.30704279;0.0010853;98.8885;120.1408;62.1227;298.1053;3.1551E-5;3.6E-7;0;Amateur
14.30704292;0.0010851;98.8886;120.2123;61.9297;298.2981;3.1424E-5;3.6E-7;0;Amateur
14.30704507;0.0010837;98.8886;120.7842;60.504;299.7221;3.8923E-5;5.6E-7;0;Amateur
14.3070459;0.0010812;98.8887;121.785;57.9268;302.2963;3.2159E-5;3.8E-7;0;Amateur
14.30704756;0.001077;98.8887;123.2147;54.1577;306.0603;2.5846E-5;2.1E-7;0;Amateur
14.30704768;0.0010768;98.8888;123.3577;53.7367;306.4808;2.5156E-5;1.9E-7;0;Amateur
14.30704879;0.0010736;98.8888;124.2871;51.498;308.7163;2.3375E-5;1.5E-7;0;Amateur
14.30704937;0.0010716;98.8889;124.859;50.0409;310.1713;2.1622E-5;1.0E-7;0;Amateur
14.30704992;0.0010695;98.8888;125.288;48.9116;311.2987;2.1532E-5;1.0E-7;0;Amateur
14.30705048;0.0010654;98.8889;126.2889;46.2591;313.9472;1.712E-5;-2.0E-8;0;Amateur
14.3070507;0.0010632;98.8889;126.9324;44.4881;315.7153;1.5467E-5;-6.0E-8;0;Amateur
